STARLINK-36726          
1 67925U 26036X   26156.58277047  .00021769  00000+0  79702-3 0  9998
2 67925  43.0042 108.9472 0001282 275.0877  84.9828 15.27630893 17162
STARLINK-36758          
1 67926U 26036Y   26156.57893959  .00022896  00000+0  83722-3 0  9993
2 67926  43.0005 108.9029 0003331  69.9705 290.1505 15.27645430 17163
STARLINK-36728          
1 67927U 26036Z   26156.57119990  .00016807  00000+0  61872-3 0  9997
2 67927  43.0009 108.8389 0001464 265.7167  94.3518 15.27588775 17165
STARLINK-36771          
1 67928U 26036AA  26156.57505267  .00016267  00000+0  59859-3 0  9996
2 67928  43.0064 108.8762 0002435 273.4066  86.6507 15.27620178 17161
STARLINK-36809          
1 67929U 26036AB  26156.56734368  .00018844  00000+0  69211-3 0  9998
2 67929  42.9997 108.8121 0001303 270.0391  90.0311 15.27600809 17162
STARLINK-36865          
1 67930U 26036AC  26156.16474869  .00025186  00000+0  91984-3 0  9992
2 67930  43.0002 110.9449 0001293 259.2462 100.8244 15.27644688 17108
STARLINK-36781          
1 67931U 26036AD  26156.56091830  .00018077  00000+0  66448-3 0  9998
2 67931  43.0003 108.7605 0001205 264.5026  95.5688 15.27597028 17160
STARLINK-36301          
1 67932U 26037A   26154.92035750  .00028624  00000+0  10437-2 0  9992
2 67932  43.0022  64.1614 0003234 295.1318  64.9198 15.27638878 16529
STARLINK-36852          
1 67933U 26037B   26156.42040384  .00018246  00000+0  67087-3 0  9992
2 67933  43.0006  55.6634 0001318 275.9267  84.1434 15.27582403 16753
STARLINK-36861          
1 67934U 26037C   26152.95104113  .00021723  00000+0  79733-3 0  9993
2 67934  43.0008  75.1839 0001372 245.3767 114.6942 15.27549705 16229
STARLINK-36860          
1 67935U 26037D   26156.73961370  .00019564  00000+0  71830-3 0  9990
2 67935  42.9993  53.7482 0001096 281.7573  78.3155 15.27592249 16806
STARLINK-36848          
1 67936U 26037E   26156.40497566  .00017391  00000+0  63852-3 0  9997
2 67936  43.0034  55.5410 0001683 270.2468  89.8191 15.27656000 16751
STARLINK-36370          
1 67937U 26037F   26155.68957798  .00023898  00000+0  87318-3 0  9997
2 67937  43.0005  59.6265 0001877 252.3779 107.6868 15.27653791 16646
STARLINK-36371          
1 67938U 26037G   26156.66395433  .00019915  00000+0  72983-3 0  9996
2 67938  42.9990  54.0342 0002715 313.1028  46.9596 15.27642522 16797
STARLINK-36246          
1 67939U 26037H   26155.81007593  .00030389  00000+0  11067-2 0  9993
2 67939  43.0000  58.8148 0002606 340.5299  19.5452 15.27654635 16662
STARLINK-36907          
1 67940U 26037J   26156.44850712  .00019213  00000+0  70403-3 0  9997
2 67940  43.0046  54.9873 0003148 262.1263  97.9231 15.27665180 16761
STARLINK-36927          
1 67941U 26037K   26156.44209145  .00017860  00000+0  65544-3 0  9992
2 67941  43.0058  54.9429 0001216 268.7888  91.2824 15.27657763 16764
STARLINK-36914          
1 67942U 26037L   26155.80620718  .00027636  00000+0  10071-2 0  9991
2 67942  43.0007  58.7625 0003119 248.0703 111.9818 15.27673293 16668
STARLINK-36851          
1 67943U 26037M   26155.86389598  .00023859  00000+0  87174-3 0  9998
2 67943  43.0047  58.3425 0002268 256.0463 104.0137 15.27654168 16671
STARLINK-36892          
1 67944U 26037N   26156.44592912  .00016500  00000+0  60630-3 0  9993
2 67944  43.0074  54.9720 0004760 277.3745  82.6566 15.27653302 16766
STARLINK-36908          
1 67945U 26037P   26156.56902803  .00017464  00000+0  64262-3 0  9996
2 67945  43.0029  54.1680 0000562 266.2542  93.8245 15.27582032 16783
STARLINK-36909          
1 67946U 26037Q   26156.43437407  .00017106  00000+0  62844-3 0  9993
2 67946  43.0038  54.8640 0001562 278.3832  81.6842 15.27646132 16762
STARLINK-36920          
1 67947U 26037R   26155.77667375  .00034289  00000+0  12456-2 0  9993
2 67947  43.0033  58.5440 0002428 235.6420 124.4202 15.27688376 16669
STARLINK-36873          
1 67948U 26037S   26156.42795076  .00022667  00000+0  82809-3 0  9994
2 67948  43.0019  54.8341 0002050 276.0909  83.9709 15.27683217 16766
STARLINK-36863          
1 67949U 26037T   26155.18303864  .00024471  00000+0  89425-3 0  9993
2 67949  43.0015  61.8231 0001457 282.4107  77.6582 15.27637284 16571
STARLINK-36887          
1 67950U 26037U   26154.85240087  .00030197  00000+0  10995-2 0  9992
2 67950  43.0026  64.5277 0002202 225.5096 134.5576 15.27663819 16512
STARLINK-36897          
1 67951U 26037V   26156.41781720  .00003059  00000+0  12057-3 0  9990
2 67951  43.0001  55.6136 0001469 271.9506  88.1177 15.27599065 16754
STARLINK-36381          
1 67952U 26037W   26156.60627148  .00016531  00000+0  60916-3 0  9991
2 67952  43.0001  54.4518 0000884 277.4517  82.6234 15.27565450 16786
STARLINK-36824          
1 67953U 26037X   26156.41397550  .00017667  00000+0  65011-3 0  9994
2 67953  43.0001  55.6023 0001347 275.7141  84.3557 15.27573636 16759
STARLINK-36869          
1 67954U 26037Y   26155.68058023  .00028796  00000+0  10487-2 0  9993
2 67954  43.0014  59.5579 0001812 243.6720 116.3946 15.27679697 16647
