OBJECT_NAME,OBJECT_ID,EPOCH,MEAN_MOTION,ECCENTRICITY,INCLINATION,RA_OF_ASC_NODE,ARG_OF_PERICENTER,MEAN_ANOMALY,EPHEMERIS_TYPE,CLASSIFICATION_TYPE,NORAD_CAT_ID,ELEMENT_SET_NO,REV_AT_EPOCH,BSTAR,MEAN_MOTION_DOT,MEAN_MOTION_DDOT
STARLINK-36726,2026-036X,2026-06-05T13:59:11.368608,15.27630893,.0001282,43.0042,108.9472,275.0877,84.9828,0,U,67925,999,1716,.79702E-3,.21769E-3,0
STARLINK-36758,2026-036Y,2026-06-05T13:53:40.380576,15.27645430,.0003331,43.0005,108.9029,69.9705,290.1505,0,U,67926,999,1716,.83722E-3,.22896E-3,0
STARLINK-36728,2026-036Z,2026-06-05T13:42:31.671360,15.27588775,.0001464,43.0009,108.8389,265.7167,94.3518,0,U,67927,999,1716,.61872E-3,.16807E-3,0
STARLINK-36771,2026-036AA,2026-06-05T13:48:04.550688,15.27620178,.0002435,43.0064,108.8762,273.4066,86.6507,0,U,67928,999,1716,.59859E-3,.16267E-3,0
STARLINK-36809,2026-036AB,2026-06-05T13:36:58.493952,15.27600809,.0001303,42.9997,108.8121,270.0391,90.0311,0,U,67929,999,1716,.69211E-3,.18844E-3,0
STARLINK-36865,2026-036AC,2026-06-05T03:57:14.286816,15.27644688,.00012931,43.0002,110.9449,259.2462,100.8244,0,U,67930,999,1710,.91983511E-3,.25186E-3,0
STARLINK-36781,2026-036AD,2026-06-05T13:27:43.341120,15.27597028,.0001205,43.0003,108.7605,264.5026,95.5688,0,U,67931,999,1716,.66448E-3,.18077E-3,0
STARLINK-36301,2026-037A,2026-06-03T22:05:18.888000,15.27638878,.0003234,43.0022,64.1614,295.1318,64.9198,0,U,67932,999,1652,.10437E-2,.28624E-3,0
STARLINK-36852,2026-037B,2026-06-05T10:05:22.891776,15.27582403,.0001318,43.0006,55.6634,275.9267,84.1434,0,U,67933,999,1675,.67087E-3,.18246E-3,0
STARLINK-36861,2026-037C,2026-06-01T22:49:29.953632,15.27549705,.0001372,43.0008,75.1839,245.3767,114.6942,0,U,67934,999,1622,.79732816E-3,.21723E-3,0
STARLINK-36860,2026-037D,2026-06-05T17:45:02.623680,15.27592249,.0001096,42.9993,53.7482,281.7573,78.3155,0,U,67935,999,1680,.7183E-3,.19564E-3,0
STARLINK-36848,2026-037E,2026-06-05T09:43:09.897024,15.27656000,.0001683,43.0034,55.5410,270.2468,89.8191,0,U,67936,999,1675,.63852E-3,.17391E-3,0
STARLINK-36370,2026-037F,2026-06-04T16:32:59.537472,15.27653791,.0001877,43.0005,59.6265,252.3779,107.6868,0,U,67937,999,1664,.87317509E-3,.23898E-3,0
STARLINK-36371,2026-037G,2026-06-05T15:56:05.654112,15.27642522,.0002715,42.9990,54.0342,313.1028,46.9596,0,U,67938,999,1679,.72983E-3,.19915E-3,0
STARLINK-36246,2026-037H,2026-06-04T19:26:30.560352,15.27654635,.0002606,43.0000,58.8148,340.5299,19.5452,0,U,67939,999,1666,.11067E-2,.30389E-3,0
STARLINK-36907,2026-037J,2026-06-05T10:45:51.015168,15.27665180,.0003148,43.0046,54.9873,262.1263,97.9231,0,U,67940,999,1676,.70403E-3,.19213E-3,0
STARLINK-36927,2026-037K,2026-06-05T10:36:36.701280,15.27657763,.0001216,43.0058,54.9429,268.7888,91.2824,0,U,67941,999,1676,.65544E-3,.1786E-3,0
STARLINK-36914,2026-037L,2026-06-04T19:20:56.300352,15.27673293,.00031199,43.0007,58.7625,248.0703,111.9818,0,U,67942,999,1666,.10071039E-2,.27636E-3,0
STARLINK-36851,2026-037M,2026-06-04T20:44:00.612672,15.27654168,.00022689,43.0047,58.3425,256.0463,104.0137,0,U,67943,999,1667,.87174107E-3,.23859E-3,0
STARLINK-36892,2026-037N,2026-06-05T10:42:08.275968,15.27653302,.000476,43.0074,54.9720,277.3745,82.6566,0,U,67944,999,1676,.6063E-3,.165E-3,0
STARLINK-36908,2026-037P,2026-06-05T13:39:24.021792,15.27582032,.0000562,43.0029,54.1680,266.2542,93.8245,0,U,67945,999,1678,.64262E-3,.17464E-3,0
STARLINK-36909,2026-037Q,2026-06-05T10:25:29.919648,15.27646132,.0001562,43.0038,54.8640,278.3832,81.6842,0,U,67946,999,1676,.62844E-3,.17106E-3,0
STARLINK-36920,2026-037R,2026-06-04T18:38:24.612000,15.27688376,.0002428,43.0033,58.5440,235.6420,124.4202,0,U,67947,999,1666,.12456E-2,.34289E-3,0
STARLINK-36873,2026-037S,2026-06-05T10:16:14.945664,15.27683217,.000205,43.0019,54.8341,276.0909,83.9709,0,U,67948,999,1676,.82809E-3,.22667E-3,0
STARLINK-36863,2026-037T,2026-06-04T04:23:34.538496,15.27637284,.00014576,43.0015,61.8231,282.4107,77.6582,0,U,67949,999,1657,.89425371E-3,.24471E-3,0
STARLINK-36887,2026-037U,2026-06-03T20:27:27.435168,15.27663819,.00022029,43.0026,64.5277,225.5096,134.5576,0,U,67950,999,1651,.10995196E-2,.30197E-3,0
STARLINK-36897,2026-037V,2026-06-05T10:01:39.406080,15.27599065,.0001469,43.0001,55.6136,271.9506,88.1177,0,U,67951,999,1675,.12057E-3,.3059E-4,0
STARLINK-36381,2026-037W,2026-06-05T14:33:01.855872,15.27565450,.0000884,43.0001,54.4518,277.4517,82.6234,0,U,67952,999,1678,.60916E-3,.16531E-3,0
STARLINK-36824,2026-037X,2026-06-05T09:56:07.483200,15.27573636,.0001347,43.0001,55.6023,275.7141,84.3557,0,U,67953,999,1675,.65011E-3,.17667E-3,0
STARLINK-36869,2026-037Y,2026-06-04T16:20:02.131872,15.27679697,.00018126,43.0014,59.5579,243.6720,116.3946,0,U,67954,999,1664,.10486519E-2,.28796E-3,0
